
# Worst residual: 129.01 km
# MJD 60931.000000 (2025 Sep 13  0:00)
ZTF101A = A11nsDz = A11oqiO
1 79876U 25000ZZC 25256.49919926  .00000000  00000-0  00000-0 0 28039
2 79876 009.4716 356.3105 6094654 152.6213 035.4626 00.95191314    02

# Worst residual: 106.83 km
# MJD 60932.000000 (2025 Sep 14  0:00)
ZTF101A = A11nsDz = A11oqiO
1 79876U 25000ZZC 25257.49919926  .00000000  00000-0  00000-0 0 28030
2 79876 009.4448 356.3416 6066087 153.3777 015.7528 00.95115237    03

# Worst residual: 128.77 km
# MJD 60933.000000 (2025 Sep 15  0:00)
ZTF101A = A11nsDz = A11oqiO
1 79876U 25000ZZC 25258.49919926  .00000000  00000-0  00000-0 0 28031
2 79876 009.4358 356.3827 6039232 154.1014 355.8920 00.95009763    04

# Worst residual: 129.41 km
# MJD 60934.000000 (2025 Sep 16  0:00)
ZTF101A = A11nsDz = A11oqiO
1 79876U 25000ZZC 25259.49919926  .00000000  00000-0  00000-0 0 28032
2 79876 009.4278 356.4060 6009910 154.8480 335.8769 00.94873924    05

# Worst residual: 152.78 km
# MJD 60935.000000 (2025 Sep 17  0:00)
ZTF101A = A11nsDz = A11oqiO
1 79876U 25000ZZC 25260.49919926  .00000000  00000-0  00000-0 0 28034
2 79876 009.4152 356.4089 5981943 155.5928 315.7450 00.94718773    00

# Worst residual: 149.27 km
# MJD 60936.000000 (2025 Sep 18  0:00)
ZTF101A = A11nsDz = A11oqiO
1 79876U 25000ZZC 25261.49919926  .00000000  00000-0  00000-0 0 28035
2 79876 009.4100 356.4288 5950263 156.3075 295.4789 00.94574966    00

# Worst residual: 116.68 km
# MJD 60937.000000 (2025 Sep 19  0:00)
ZTF101A = A11nsDz = A11oqiO
1 79876U 25000ZZC 25262.49919926  .00000000  00000-0  00000-0 0 28036
2 79876 009.3957 356.4819 5916475 156.9966 275.0603 00.94442054    02

# Worst residual: 109.89 km
# MJD 60938.000000 (2025 Sep 20  0:00)
ZTF101A = A11nsDz = A11oqiO
1 79876U 25000ZZC 25263.49919926  .00000000  00000-0  00000-0 0 28037
2 79876 009.3983 356.4310 5881934 157.8035 254.4566 00.94317180    05

# Worst residual: 59.61 km
# MJD 60939.000000 (2025 Sep 21  0:00)
ZTF101A = A11nsDz = A11oqiO
1 79876U 25000ZZC 25264.49919926  .00000000  00000-0  00000-0 0 28038
2 79876 009.3941 356.4260 5845318 158.5930 233.6592 00.94212056    05

# Worst residual: 69.72 km
# MJD 60940.000000 (2025 Sep 22  0:00)
ZTF101A = A11nsDz = A11oqiO
1 79876U 25000ZZC 25265.49919926  .00000000  00000-0  00000-0 0 28039
2 79876 009.3911 356.4170 5811187 159.4300 212.6332 00.94140549    06

# Worst residual: 83.20 km
# MJD 60941.000000 (2025 Sep 23  0:00)
ZTF101A = A11nsDz = A11oqiO
1 79876U 25000ZZC 25266.49919926  .00000000  00000-0  00000-0 0 28030
2 79876 009.3913 356.4125 5782401 160.2772 191.4250 00.94118636    02

# Worst residual: 122.41 km
# MJD 60942.000000 (2025 Sep 24  0:00)
ZTF101A = A11nsDz = A11oqiO
1 79876U 25000ZZC 25267.49919926  .00000000  00000-0  00000-0 0 28031
2 79876 009.3894 356.3847 5756498 161.1371 170.0363 00.94141824    05

# Worst residual: 128.29 km
# MJD 60943.000000 (2025 Sep 25  0:00)
ZTF101A = A11nsDz = A11oqiO
1 79876U 25000ZZC 25268.49919926  .00000000  00000-0  00000-0 0 28032
2 79876 009.3909 356.3625 5734244 161.9441 148.5359 00.94200457    00

# Worst residual: 192.00 km
# MJD 60944.000000 (2025 Sep 26  0:00)
ZTF101A = A11nsDz = A11oqiO
1 79876U 25000ZZC 25269.49919926  .00000000  00000-0  00000-0 0 28033
2 79876 009.4028 356.3195 5705831 162.7509 126.8769 00.94256752    02

# Worst residual: 192.04 km
# MJD 60945.000000 (2025 Sep 27  0:00)
ZTF101A = A11nsDz = A11oqiO
1 79876U 25000ZZC 25270.49919926  .00000000  00000-0  00000-0 0 28035
2 79876 009.3982 356.3142 5675007 163.5214 104.9829 00.94310318    08

# Worst residual: 190.14 km
# MJD 60946.000000 (2025 Sep 28  0:00)
ZTF101A = A11nsDz = A11oqiO
1 79876U 25000ZZC 25271.49919926  .00000000  00000-0  00000-0 0 28036
2 79876 009.3974 356.3271 5639164 164.3068 082.8541 00.94347474    00

# Worst residual: 172.25 km
# MJD 60947.000000 (2025 Sep 29  0:00)
ZTF101A = A11nsDz = A11oqiO
1 79876U 25000ZZC 25272.49919926  .00000000  00000-0  00000-0 0 28037
2 79876 009.4126 356.2629 5602471 165.1792 060.5003 00.94381083    00

# Worst residual: 117.86 km
# MJD 60948.000000 (2025 Sep 30  0:00)
ZTF101A = A11nsDz = A11oqiO
1 79876U 25000ZZC 25273.49919926  .00000000  00000-0  00000-0 0 28038
2 79876 009.4209 356.2356 5566664 166.0659 037.8768 00.94355762    04

# Worst residual: 132.84 km
# MJD 60949.000000 (2025 Oct  1  0:00)
ZTF101A = A11nsDz = A11oqiO
1 79876U 25000ZZC 25274.49919926  .00000000  00000-0  00000-0 0 28039
2 79876 009.4351 356.1971 5532149 166.9866 015.0565 00.94269462    08

# Worst residual: 158.11 km
# MJD 60950.000000 (2025 Oct  2  0:00)
ZTF101A = A11nsDz = A11oqiO
1 79876U 25000ZZC 25275.49919926  .00000000  00000-0  00000-0 0 28030
2 79876 009.4473 356.2096 5499119 167.8535 352.0811 00.94152783    09

# Worst residual: 155.80 km
# MJD 60951.000000 (2025 Oct  3  0:00)
ZTF101A = A11nsDz = A11oqiO
1 79876U 25000ZZC 25276.49919926  .00000000  00000-0  00000-0 0 28031
2 79876 009.4575 356.1458 5466960 168.7723 328.9814 00.94002096    06
